      2.10          N: GNSS NAV DATA                        RINEX VERSION / TYPE
fic2rin                                 12/07/2024 00:59:01 PGM / RUN BY / DATE
                                                            END OF HEADER
7  24 12  6  1 59 44.0 -.166948884726D-04  .147792889038D-11  .000000000000D+00
     .100000000000D+02  .940625000000D+01  .492734810097D-08  .273049627693D+00
     .592321157455D-06  .188875023741D-01  .825896859169D-05  .515357935524D+04
     .439184000000D+06 -.322237610817D-06  .177898223835D+01  .283122062683D-06
     .949919712426D+00  .218875000000D+03 -.209096937786D+01 -.837713465557D-08
     .375015620906D-09  .100000000000D+01  .234300000000D+04  .000000000000D+00
     .240000000000D+01  .000000000000D+00 -.107102096081D-07  .100000000000D+02
     .432000000000D+06  .400000000000D+01
26 24 12  6  8  0  0.0  .131363049150D-05 -.137561073643D-10  .000000000000D+00
     .162000000000D+03  .831250000000D+01  .546058459812D-08  .173281054249D+01
     .437721610069D-06  .968081597239D-02  .679120421410D-05  .515373347855D+04
     .460800000000D+06 -.147148966789D-06  .274025388639D+01  .409781932831D-07
     .930164016105D+00  .235500000000D+03  .590502450054D+00 -.846249535404D-08
    -.258939357292D-09  .100000000000D+01  .234300000000D+04  .000000000000D+00
     .240000000000D+01  .000000000000D+00  .651925802231D-08  .162000000000D+03
     .453600000000D+06  .400000000000D+01
17 24 12  6  8  0  0.0  .530658289790D-03 -.155750967679D-10  .000000000000D+00
     .820000000000D+02  .480937500000D+02  .428374986395D-08 -.144667706996D+00
     .229291617870D-05  .134837888181D-01  .963360071182D-05  .515358802414D+04
     .460800000000D+06 -.284984707832D-06 -.235039687709D+01 -.139698386192D-06
     .966209881628D+00  .198093750000D+03 -.125992158726D+01 -.805354974839D-08
    -.215366113720D-09  .100000000000D+01  .234300000000D+04  .000000000000D+00
     .340000000000D+01  .000000000000D+00 -.107102096081D-07  .820000000000D+02
     .453600000000D+06  .400000000000D+01
19 24 12  6  8  0  0.0  .570843927562D-03  .420641299570D-11  .000000000000D+00
     .490000000000D+02  .555937500000D+02  .423089051929D-08  .172221859428D+01
     .285543501377D-05  .996566656977D-02  .943616032600D-05  .515359696388D+04
     .460800000000D+06 -.186264514923D-08 -.230618259927D+01  .160187482834D-06
     .965397766063D+00  .199187500000D+03  .269076486141D+01 -.774925135885D-08
    -.316798910232D-09  .100000000000D+01  .234300000000D+04  .000000000000D+00
     .240000000000D+01  .000000000000D+00 -.153668224812D-07  .490000000000D+02
     .453600000000D+06  .400000000000D+01
28 24 12  6  8  0  0.0 -.500157475471D-03 -.110276232590D-10  .000000000000D+00
     .850000000000D+02 -.781250000000D+00  .460983487527D-08  .219282741467D+01
    -.763684511185D-07  .469830119982D-03  .899098813534D-05  .515376777649D+04
     .460800000000D+06  .167638063431D-07  .174792945413D+01  .502914190292D-07
     .960984262178D+00  .207000000000D+03  .142333337834D+01 -.796354599937D-08
     .347157317639D-09  .100000000000D+01  .234300000000D+04  .000000000000D+00
     .240000000000D+01  .000000000000D+00 -.931322574615D-08  .341000000000D+03
     .453600000000D+06  .400000000000D+01
18 24 12  6  8  0  0.0 -.660537742078D-03  .227373675443D-12  .000000000000D+00
     .430000000000D+02  .811250000000D+02  .427553523606D-08 -.213336992838D+01
     .406056642532D-05  .480364391115D-02  .479817390442D-05  .515372192574D+04
     .460800000000D+06  .931322574615D-08 -.134379506804D+01 -.540167093277D-07
     .974049684485D+00  .298281250000D+03 -.294034303060D+01 -.804104922769D-08
     .246795994329D-09  .100000000000D+01  .234300000000D+04  .000000000000D+00
     .240000000000D+01  .000000000000D+00 -.838190317154D-08  .299000000000D+03
     .453600000000D+06  .400000000000D+01
29 24 12  6  8  0  0.0 -.558203086257D-03  .306954461848D-11  .000000000000D+00
     .176000000000D+03  .645937500000D+02  .410838541646D-08 -.187879258337D+00
     .329315662384D-05  .286400760524D-02  .922381877899D-05  .515374036789D+04
     .460800000000D+06  .596046447754D-07 -.233488689673D+01 -.167638063431D-07
     .968699749181D+00  .203625000000D+03  .266514631315D+01 -.783032616451D-08
    -.175007289756D-09  .100000000000D+01  .234300000000D+04  .000000000000D+00
     .340000000000D+01  .000000000000D+00 -.977888703346D-08  .176000000000D+03
     .453600000000D+06  .400000000000D+01
23 24 12  6  8  0  0.0  .377842225134D-03  .773070496507D-11  .000000000000D+00
     .490000000000D+02 -.572500000000D+02  .421624705218D-08  .303122585660D+01
    -.292062759399D-05  .495545146987D-02  .318884849548D-05  .515362659073D+04
     .460800000000D+06 -.782310962677D-07 -.341678886194D+00 -.968575477600D-07
     .982227362901D+00  .330500000000D+03 -.288812150286D+01 -.803676333488D-08
    -.421446126351D-10  .100000000000D+01  .234300000000D+04  .000000000000D+00
     .240000000000D+01  .000000000000D+00 -.838190317154D-08  .561000000000D+03
     .453600000000D+06  .400000000000D+01
26 24 12  6  7 59 44.0  .131595879793D-05 -.137561073643D-10  .000000000000D+00
     .300000000000D+01  .831250000000D+01  .546058459812D-08  .173047652399D+01
     .437721610069D-06  .968081993051D-02  .679120421410D-05  .515373347855D+04
     .460784000000D+06 -.147148966789D-06  .274025401805D+01  .409781932831D-07
     .930164023419D+00  .235500000000D+03  .590502798229D+00 -.846249535404D-08
    -.259296515026D-09  .100000000000D+01  .234300000000D+04  .000000000000D+00
     .240000000000D+01  .000000000000D+00  .651925802231D-08  .300000000000D+01
     .454440000000D+06  .400000000000D+01
29 24 12  6  7 59 44.0 -.558204948902D-03  .306954461848D-11  .000000000000D+00
     .130000000000D+02  .645937500000D+02  .410874257419D-08 -.190212485399D+00
     .329315662384D-05  .286400574259D-02  .922381877899D-05  .515374036980D+04
     .460784000000D+06  .596046447754D-07 -.233488676214D+01 -.167638063431D-07
     .968699743330D+00  .203625000000D+03  .266514588159D+01 -.783032616451D-08
    -.175364447490D-09  .100000000000D+01  .234300000000D+04  .000000000000D+00
     .240000000000D+01  .000000000000D+00 -.977888703346D-08  .130000000000D+02
     .455790000000D+06  .400000000000D+01
30 24 12  6  7 59 44.0 -.267223920673D-03  .795807864051D-11  .000000000000D+00
     .130000000000D+02 -.431250000000D+01  .510556981033D-08 -.303499282823D+01
    -.294297933578D-06  .718354806304D-02  .859610736370D-05  .515376487350D+04
     .460784000000D+06  .130385160446D-07  .177653776221D+01 -.102445483208D-06
     .935095780664D+00  .199218750000D+03 -.246030898158D+01 -.806283584948D-08
     .322156276245D-09  .100000000000D+01  .234300000000D+04  .000000000000D+00
     .240000000000D+01  .000000000000D+00  .372529029846D-08  .130000000000D+02
     .456000000000D+06  .400000000000D+01
3  24 12  6  7 59 44.0  .617881771177D-03  .920863385545D-11  .000000000000D+00
     .120000000000D+02 -.494375000000D+02  .413195782691D-08  .284059586608D+01
    -.262074172497D-05  .565248692874D-02  .278465449810D-05  .515361661911D+04
     .460784000000D+06 -.670552253723D-07 -.309236607757D+00 -.968575477600D-07
     .987496147213D+00  .336843750000D+03  .115489858570D+01 -.803426323074D-08
    -.846463830045D-10  .100000000000D+01  .234300000000D+04  .000000000000D+00
     .240000000000D+01  .000000000000D+00  .139698386192D-08  .120000000000D+02
     .456120000000D+06  .400000000000D+01
16 24 12  6  7 59 44.0 -.110336579382D-03  .966338120634D-11  .000000000000D+00
     .530000000000D+02  .122187500000D+02  .468948104999D-08  .896644225357D+00
     .812113285065D-06  .143443489214D-01  .732392072678D-05  .515365277100D+04
     .460784000000D+06 -.208616256714D-06  .291263037655D+01  .558793544769D-07
     .960822448809D+00  .241687500000D+03  .858398523104D+00 -.816891169653D-08
    -.413231498465D-09  .100000000000D+01  .234300000000D+04  .000000000000D+00
     .240000000000D+01  .000000000000D+00 -.107102096081D-07  .530000000000D+02
     .456210000000D+06  .400000000000D+01
3  24 12  6  9 59 44.0  .617947895080D-03  .920863385545D-11  .000000000000D+00
     .480000000000D+02 -.539375000000D+02  .421660420992D-08 -.239233881742D+01
    -.274181365967D-05  .565279065631D-02  .294856727123D-05  .515361616135D+04
     .467984000000D+06  .745058059692D-07 -.309295430230D+00  .558793544769D-08
     .987495984829D+00  .337062500000D+03  .115486223219D+01 -.808283668259D-08
     .510735559900D-10  .100000000000D+01  .234300000000D+04  .000000000000D+00
     .240000000000D+01  .000000000000D+00  .139698386192D-08  .480000000000D+02
     .460800000000D+06  .400000000000D+01
26 24 12  6  9 59 44.0  .121677294374D-05 -.137561073643D-10  .000000000000D+00
     .400000000000D+01  .621875000000D+01  .538843873582D-08  .278058335892D+01
     .230967998505D-06  .968046800699D-02  .650249421597D-05  .515373450851D+04
     .467984000000D+06 -.577419996262D-07  .274019334499D+01 -.104308128357D-06
     .930163005228D+00  .238843750000D+03  .590546728196D+00 -.830713173967D-08
    -.215008955986D-09  .100000000000D+01  .234300000000D+04  .000000000000D+00
     .240000000000D+01  .000000000000D+00  .651925802231D-08  .400000000000D+01
     .460800000000D+06  .400000000000D+01
29 24 12  6  9 59 44.0 -.558182597160D-03  .306954461848D-11  .000000000000D+00
     .200000000000D+02  .578437500000D+02  .407552690491D-08  .860060362932D+00
     .303424894810D-05  .286426336970D-02  .937841832638D-05  .515374058151D+04
     .467984000000D+06  .763684511185D-07 -.233494314007D+01  .279396772385D-07
     .968698439870D+00  .202562500000D+03  .266500941913D+01 -.783068332225D-08
    -.186079179516D-09  .100000000000D+01  .234300000000D+04  .000000000000D+00
     .240000000000D+01  .000000000000D+00 -.977888703346D-08  .200000000000D+02
     .460800000000D+06  .400000000000D+01
